[{"OBJECT_NAME":"STARLINK-36808","OBJECT_ID":"2026-035C","EPOCH":"2026-03-05T16:00:00.999936","MEAN_MOTION":15.96411772,"ECCENTRICITY":0.0001283,"INCLINATION":97.2761,"RA_OF_ASC_NODE":356.6946,"ARG_OF_PERICENTER":102.6576,"MEAN_ANOMALY":80.8175,"EPHEMERIS_TYPE":0,"CLASSIFICATION_TYPE":"U","NORAD_CAT_ID":67881,"ELEMENT_SET_NO":999,"REV_AT_EPOCH":311,"BSTAR":-0.0023331,"MEAN_MOTION_DOT":-0.00966693,"MEAN_MOTION_DDOT":0.00029591},{"OBJECT_NAME":"STARLINK-36817","OBJECT_ID":"2026-035D","EPOCH":"2026-03-05T16:00:00.999936","MEAN_MOTION":15.96627949,"ECCENTRICITY":0.0001236,"INCLINATION":97.2751,"RA_OF_ASC_NODE":356.6998,"ARG_OF_PERICENTER":88.3058,"MEAN_ANOMALY":107.9226,"EPHEMERIS_TYPE":0,"CLASSIFICATION_TYPE":"U","NORAD_CAT_ID":67882,"ELEMENT_SET_NO":999,"REV_AT_EPOCH":311,"BSTAR":-0.0023094,"MEAN_MOTION_DOT":-0.00968138,"MEAN_MOTION_DDOT":0.00029742},{"OBJECT_NAME":"STARLINK-36856","OBJECT_ID":"2026-035E","EPOCH":"2026-03-05T16:00:00.999936","MEAN_MOTION":15.96548547,"ECCENTRICITY":0.0001096,"INCLINATION":97.2758,"RA_OF_ASC_NODE":356.6982,"ARG_OF_PERICENTER":86.7006,"MEAN_ANOMALY":105.5767,"EPHEMERIS_TYPE":0,"CLASSIFICATION_TYPE":"U","NORAD_CAT_ID":67883,"ELEMENT_SET_NO":999,"REV_AT_EPOCH":311,"BSTAR":-0.0023044,"MEAN_MOTION_DOT":-0.00961911,"MEAN_MOTION_DDOT":0.00029363},{"OBJECT_NAME":"STARLINK-36842","OBJECT_ID":"2026-035F","EPOCH":"2026-03-05T16:00:00.999936","MEAN_MOTION":15.9670478,"ECCENTRICITY":0.0001214,"INCLINATION":97.2752,"RA_OF_ASC_NODE":356.7015,"ARG_OF_PERICENTER":88.9168,"MEAN_ANOMALY":111.0182,"EPHEMERIS_TYPE":0,"CLASSIFICATION_TYPE":"U","NORAD_CAT_ID":67884,"ELEMENT_SET_NO":999,"REV_AT_EPOCH":311,"BSTAR":-0.0023004,"MEAN_MOTION_DOT":-0.0096837,"MEAN_MOTION_DDOT":0.0002978},{"OBJECT_NAME":"STARLINK-36826","OBJECT_ID":"2026-035G","EPOCH":"2026-03-05T16:00:00.999936","MEAN_MOTION":15.9678324,"ECCENTRICITY":0.0001236,"INCLINATION":97.275,"RA_OF_ASC_NODE":356.7029,"ARG_OF_PERICENTER":103.4089,"MEAN_ANOMALY":99.5306,"EPHEMERIS_TYPE":0,"CLASSIFICATION_TYPE":"U","NORAD_CAT_ID":67885,"ELEMENT_SET_NO":999,"REV_AT_EPOCH":311,"BSTAR":-0.0022957,"MEAN_MOTION_DOT":-0.00970533,"MEAN_MOTION_DDOT":0.00029929},{"OBJECT_NAME":"STARLINK-36390","OBJECT_ID":"2026-035H","EPOCH":"2026-03-05T16:00:00.999936","MEAN_MOTION":15.96864657,"ECCENTRICITY":0.0001171,"INCLINATION":97.2746,"RA_OF_ASC_NODE":356.7044,"ARG_OF_PERICENTER":85.5961,"MEAN_ANOMALY":121.8013,"EPHEMERIS_TYPE":0,"CLASSIFICATION_TYPE":"U","NORAD_CAT_ID":67886,"ELEMENT_SET_NO":999,"REV_AT_EPOCH":315,"BSTAR":-0.0022922,"MEAN_MOTION_DOT":-0.00973301,"MEAN_MOTION_DDOT":0.00030114},{"OBJECT_NAME":"STARLINK-36368","OBJECT_ID":"2026-035J","EPOCH":"2026-03-05T16:00:00.999936","MEAN_MOTION":15.96954399,"ECCENTRICITY":0.000131,"INCLINATION":97.2745,"RA_OF_ASC_NODE":356.7062,"ARG_OF_PERICENTER":92.3652,"MEAN_ANOMALY":119.2808,"EPHEMERIS_TYPE":0,"CLASSIFICATION_TYPE":"U","NORAD_CAT_ID":67887,"ELEMENT_SET_NO":999,"REV_AT_EPOCH":311,"BSTAR":-0.0023149,"MEAN_MOTION_DOT":-0.00987657,"MEAN_MOTION_DDOT":0.00030974},{"OBJECT_NAME":"STARLINK-36801","OBJECT_ID":"2026-035K","EPOCH":"2026-03-05T16:00:00.999936","MEAN_MOTION":15.97039391,"ECCENTRICITY":0.0001208,"INCLINATION":97.2741,"RA_OF_ASC_NODE":356.7081,"ARG_OF_PERICENTER":105.8457,"MEAN_ANOMALY":109.9137,"EPHEMERIS_TYPE":0,"CLASSIFICATION_TYPE":"U","NORAD_CAT_ID":67888,"ELEMENT_SET_NO":999,"REV_AT_EPOCH":311,"BSTAR":-0.0022851,"MEAN_MOTION_DOT":-0.00979519,"MEAN_MOTION_DDOT":0.0003053},{"OBJECT_NAME":"STARLINK-36372","OBJECT_ID":"2026-035L","EPOCH":"2026-03-05T16:00:00.999936","MEAN_MOTION":15.97221809,"ECCENTRICITY":0.0001279,"INCLINATION":97.2734,"RA_OF_ASC_NODE":356.7109,"ARG_OF_PERICENTER":110.9193,"MEAN_ANOMALY":112.7382,"EPHEMERIS_TYPE":0,"CLASSIFICATION_TYPE":"U","NORAD_CAT_ID":67889,"ELEMENT_SET_NO":999,"REV_AT_EPOCH":311,"BSTAR":-0.0023272,"MEAN_MOTION_DOT":-0.01007326,"MEAN_MOTION_DDOT":0.0003222},{"OBJECT_NAME":"STARLINK-36363","OBJECT_ID":"2026-035M","EPOCH":"2026-03-05T16:00:00.999936","MEAN_MOTION":15.97123604,"ECCENTRICITY":0.0001273,"INCLINATION":97.2742,"RA_OF_ASC_NODE":356.71,"ARG_OF_PERICENTER":99.2544,"MEAN_ANOMALY":121.1098,"EPHEMERIS_TYPE":0,"CLASSIFICATION_TYPE":"U","NORAD_CAT_ID":67890,"ELEMENT_SET_NO":999,"REV_AT_EPOCH":311,"BSTAR":-0.0023071,"MEAN_MOTION_DOT":-0.00993398,"MEAN_MOTION_DDOT":0.00031366},{"OBJECT_NAME":"STARLINK-36816","OBJECT_ID":"2026-035N","EPOCH":"2026-03-05T16:00:00.999936","MEAN_MOTION":15.98183435,"ECCENTRICITY":0.0001113,"INCLINATION":97.2725,"RA_OF_ASC_NODE":356.7341,"ARG_OF_PERICENTER":90.5921,"MEAN_ANOMALY":192.2729,"EPHEMERIS_TYPE":0,"CLASSIFICATION_TYPE":"U","NORAD_CAT_ID":67891,"ELEMENT_SET_NO":999,"REV_AT_EPOCH":300,"BSTAR":-0.0026087,"MEAN_MOTION_DOT":-0.01188696,"MEAN_MOTION_DDOT":0.00044241},{"OBJECT_NAME":"STARLINK-36813","OBJECT_ID":"2026-035P","EPOCH":"2026-03-05T16:00:00.999936","MEAN_MOTION":15.97747241,"ECCENTRICITY":0.0001219,"INCLINATION":97.2719,"RA_OF_ASC_NODE":356.7229,"ARG_OF_PERICENTER":93.7679,"MEAN_ANOMALY":162.638,"EPHEMERIS_TYPE":0,"CLASSIFICATION_TYPE":"U","NORAD_CAT_ID":67892,"ELEMENT_SET_NO":999,"REV_AT_EPOCH":311,"BSTAR":-0.0026475,"MEAN_MOTION_DOT":-0.01177852,"MEAN_MOTION_DDOT":0.00043292},{"OBJECT_NAME":"STARLINK-36803","OBJECT_ID":"2026-035Q","EPOCH":"2026-03-05T16:00:00.999936","MEAN_MOTION":15.97322605,"ECCENTRICITY":0.0001295,"INCLINATION":97.2735,"RA_OF_ASC_NODE":356.7129,"ARG_OF_PERICENTER":100.3433,"MEAN_ANOMALY":128.2259,"EPHEMERIS_TYPE":0,"CLASSIFICATION_TYPE":"U","NORAD_CAT_ID":67893,"ELEMENT_SET_NO":999,"REV_AT_EPOCH":311,"BSTAR":-0.0024835,"MEAN_MOTION_DOT":-0.01080334,"MEAN_MOTION_DDOT":0.00036722},{"OBJECT_NAME":"STARLINK-36846","OBJECT_ID":"2026-035R","EPOCH":"2026-03-05T16:00:00.999936","MEAN_MOTION":15.97469544,"ECCENTRICITY":0.0001468,"INCLINATION":97.2731,"RA_OF_ASC_NODE":356.7171,"ARG_OF_PERICENTER":109.6789,"MEAN_ANOMALY":128.947,"EPHEMERIS_TYPE":0,"CLASSIFICATION_TYPE":"U","NORAD_CAT_ID":67894,"ELEMENT_SET_NO":999,"REV_AT_EPOCH":311,"BSTAR":-0.0026054,"MEAN_MOTION_DOT":-0.01141989,"MEAN_MOTION_DDOT":0.00040761},{"OBJECT_NAME":"STARLINK-36866","OBJECT_ID":"2026-035S","EPOCH":"2026-03-05T16:00:00.999936","MEAN_MOTION":15.97526802,"ECCENTRICITY":0.0001213,"INCLINATION":97.2731,"RA_OF_ASC_NODE":356.7187,"ARG_OF_PERICENTER":82.7262,"MEAN_ANOMALY":160.3239,"EPHEMERIS_TYPE":0,"CLASSIFICATION_TYPE":"U","NORAD_CAT_ID":67895,"ELEMENT_SET_NO":999,"REV_AT_EPOCH":311,"BSTAR":-0.0025865,"MEAN_MOTION_DOT":-0.01137254,"MEAN_MOTION_DDOT":0.00040475},{"OBJECT_NAME":"STARLINK-36877","OBJECT_ID":"2026-035T","EPOCH":"2026-03-05T16:00:00.999936","MEAN_MOTION":15.97402492,"ECCENTRICITY":0.000133,"INCLINATION":97.2731,"RA_OF_ASC_NODE":356.7149,"ARG_OF_PERICENTER":97.4342,"MEAN_ANOMALY":136.3606,"EPHEMERIS_TYPE":0,"CLASSIFICATION_TYPE":"U","NORAD_CAT_ID":67896,"ELEMENT_SET_NO":999,"REV_AT_EPOCH":311,"BSTAR":-0.002582,"MEAN_MOTION_DOT":-0.01127665,"MEAN_MOTION_DDOT":0.00039791}]
