STARLINK-36808          
1 67881U 26035C   26064.66667824 -.00966693  29591-3 -23331-2 0  9993
2 67881  97.2761 356.6946 0001283 102.6576  80.8175 15.96411772  3111
STARLINK-36817          
1 67882U 26035D   26064.66667824 -.00968138  29742-3 -23094-2 0  9994
2 67882  97.2751 356.6998 0001236  88.3058 107.9226 15.96627949  3114
STARLINK-36856          
1 67883U 26035E   26064.66667824 -.00961911  29363-3 -23044-2 0  9991
2 67883  97.2758 356.6982 0001096  86.7006 105.5767 15.96548547  3114
STARLINK-36842          
1 67884U 26035F   26064.66667824 -.00968370  29780-3 -23004-2 0  9997
2 67884  97.2752 356.7015 0001214  88.9168 111.0182 15.96704780  3118
STARLINK-36826          
1 67885U 26035G   26064.66667824 -.00970533  29929-3 -22957-2 0  9993
2 67885  97.2750 356.7029 0001236 103.4089  99.5306 15.96783240  3117
STARLINK-36390          
1 67886U 26035H   26064.66667824 -.00973301  30114-3 -22922-2 0  9990
2 67886  97.2746 356.7044 0001171  85.5961 121.8013 15.96864657  3157
STARLINK-36368          
1 67887U 26035J   26064.66667824 -.00987657  30974-3 -23149-2 0  9996
2 67887  97.2745 356.7062 0001310  92.3652 119.2808 15.96954399  3117
STARLINK-36801          
1 67888U 26035K   26064.66667824 -.00979519  30530-3 -22851-2 0  9992
2 67888  97.2741 356.7081 0001208 105.8457 109.9137 15.97039391  3112
STARLINK-36372          
1 67889U 26035L   26064.66667824 -.01007326  32220-3 -23272-2 0  9998
2 67889  97.2734 356.7109 0001279 110.9193 112.7382 15.97221809  3119
STARLINK-36363          
1 67890U 26035M   26064.66667824 -.00993398  31366-3 -23071-2 0  9999
2 67890  97.2742 356.7100 0001273  99.2544 121.1098 15.97123604  3116
STARLINK-36816          
1 67891U 26035N   26064.66667824 -.01188696  44241-3 -26087-2 0  9994
2 67891  97.2725 356.7341 0001113  90.5921 192.2729 15.98183435  3008
STARLINK-36813          
1 67892U 26035P   26064.66667824 -.01177852  43292-3 -26475-2 0  9993
2 67892  97.2719 356.7229 0001219  93.7679 162.6380 15.97747241  3115
STARLINK-36803          
1 67893U 26035Q   26064.66667824 -.01080334  36722-3 -24835-2 0  9990
2 67893  97.2735 356.7129 0001295 100.3433 128.2259 15.97322605  3116
STARLINK-36846          
1 67894U 26035R   26064.66667824 -.01141989  40761-3 -26054-2 0  9998
2 67894  97.2731 356.7171 0001468 109.6789 128.9470 15.97469544  3114
STARLINK-36866          
1 67895U 26035S   26064.66667824 -.01137254  40475-3 -25865-2 0  9990
2 67895  97.2731 356.7187 0001213  82.7262 160.3239 15.97526802  3111
STARLINK-36877          
1 67896U 26035T   26064.66667824 -.01127665  39791-3 -25820-2 0  9996
2 67896  97.2731 356.7149 0001330  97.4342 136.3606 15.97402492  3111
